{
    "links": {
        "self": "http://www.neowsapp.com/rest/v1/neo/3826854?api_key=iIulBulltgU6a56xZRHN4H3l9WmuAYTsLGpBGhQ2"
    },
    "id": "3826854",
    "neo_reference_id": "3826854",
    "name": "(2018 PY23)",
    "designation": "2018 PY23",
    "nasa_jpl_url": "http://ssd.jpl.nasa.gov/sbdb.cgi?sstr=3826854",
    "absolute_magnitude_h": 27.8,
    "estimated_diameter": {
        "kilometers": {
            "estimated_diameter_min": 0.0073207399,
            "estimated_diameter_max": 0.016369672
        },
        "meters": {
            "estimated_diameter_min": 7.3207398935,
            "estimated_diameter_max": 16.3696720474
        },
        "miles": {
            "estimated_diameter_min": 0.0045488955,
            "estimated_diameter_max": 0.0101716395
        },
        "feet": {
            "estimated_diameter_min": 24.0181762721,
            "estimated_diameter_max": 53.70627484
        }
    },
    "is_potentially_hazardous_asteroid": false,
    "close_approach_data": [
        {
            "close_approach_date": "1942-02-22",
            "close_approach_date_full": "1942-Feb-22 10:30",
            "epoch_date_close_approach": -879082200000,
            "relative_velocity": {
                "kilometers_per_second": "15.9698405055",
                "kilometers_per_hour": "57491.4258199217",
                "miles_per_hour": "35722.9362268286"
            },
            "miss_distance": {
                "astronomical": "0.3147713285",
                "lunar": "122.4460467865",
                "kilometers": "47089120.280670295",
                "miles": "29259822.546408271"
            },
            "orbiting_body": "Earth"
        },
        {
            "close_approach_date": "2018-08-15",
            "close_approach_date_full": "2018-Aug-15 20:50",
            "epoch_date_close_approach": 1534366200000,
            "relative_velocity": {
                "kilometers_per_second": "25.1195661703",
                "kilometers_per_hour": "90430.4382132362",
                "miles_per_hour": "56189.9575664412"
            },
            "miss_distance": {
                "astronomical": "0.0033862767",
                "lunar": "1.3172616363",
                "kilometers": "506579.781550629",
                "miles": "314774.0799875202"
            },
            "orbiting_body": "Earth"
        },
        {
            "close_approach_date": "2018-08-15",
            "close_approach_date_full": "2018-Aug-15 23:20",
            "epoch_date_close_approach": 1534375200000,
            "relative_velocity": {
                "kilometers_per_second": "25.9229496422",
                "kilometers_per_hour": "93322.618711817",
                "miles_per_hour": "57987.0460545732"
            },
            "miss_distance": {
                "astronomical": "0.0013401358",
                "lunar": "0.5213128262",
                "kilometers": "200481.461190746",
                "miles": "124573.4034384548"
            },
            "orbiting_body": "Moon"
        },
        {
            "close_approach_date": "2027-08-10",
            "close_approach_date_full": "2027-Aug-10 13:42",
            "epoch_date_close_approach": 1817905320000,
            "relative_velocity": {
                "kilometers_per_second": "28.5294579653",
                "kilometers_per_hour": "102706.0486749871",
                "miles_per_hour": "63817.5445225219"
            },
            "miss_distance": {
                "astronomical": "0.1170190516",
                "lunar": "45.5204110724",
                "kilometers": "17505800.868780092",
                "miles": "10877600.2588335896"
            },
            "orbiting_body": "Earth"
        }
    ],
    "orbital_data": {
        "orbit_id": "1",
        "orbit_determination_date": "2018-08-17 19:42:34",
        "first_observation_date": "2018-08-13",
        "last_observation_date": "2018-08-14",
        "data_arc_in_days": 1,
        "observations_used": 9,
        "orbit_uncertainty": "9",
        "minimum_orbit_intersection": ".000544426",
        "jupiter_tisserand_invariant": "3.304",
        "epoch_osculation": "2458344.5",
        "eccentricity": ".785758570326373",
        "semi_major_axis": "2.060353631180214",
        "inclination": "1.435702418275068",
        "ascending_node_longitude": "321.2819630884059",
        "orbital_period": "1080.217174686755",
        "perihelion_distance": ".4414131075772978",
        "perihelion_argument": "107.6633208425459",
        "aphelion_distance": "3.679294154783129",
        "perihelion_time": "2458392.467312872598",
        "mean_anomaly": "344.0141102744985",
        "mean_motion": ".3332663175850671",
        "equinox": "J2000",
        "orbit_class": {
            "orbit_class_type": "APO",
            "orbit_class_description": "Near-Earth asteroid orbits which cross the Earth’s orbit similar to that of 1862 Apollo",
            "orbit_class_range": "a (semi-major axis) > 1.0 AU; q (perihelion) < 1.017 AU"
        }
    },
    "is_sentry_object": false
}